[{"OBJECT_NAME":"IRIDIUM 124","OBJECT_ID":"2017-039H","EPOCH":"2026-03-09T23:29:37.068864","MEAN_MOTION":14.432748,"ECCENTRICITY":0.0002084,"INCLINATION":86.4531,"RA_OF_ASC_NODE":331.8553,"ARG_OF_PERICENTER":84.6213,"MEAN_ANOMALY":275.5226,"EPHEMERIS_TYPE":0,"CLASSIFICATION_TYPE":"U","NORAD_CAT_ID":42810,"ELEMENT_SET_NO":999,"REV_AT_EPOCH":46080,"BSTAR":0.00013794234,"MEAN_MOTION_DOT":4.84e-6,"MEAN_MOTION_DDOT":0},{"OBJECT_NAME":"DMSP 5D-2 F13 DEB","OBJECT_ID":"1995-015DT","EPOCH":"2026-03-09T08:29:46.330080","MEAN_MOTION":14.44304808,"ECCENTRICITY":0.00132746,"INCLINATION":98.6067,"RA_OF_ASC_NODE":111.136,"ARG_OF_PERICENTER":157.1376,"MEAN_ANOMALY":203.0408,"EPHEMERIS_TYPE":0,"CLASSIFICATION_TYPE":"U","NORAD_CAT_ID":40560,"ELEMENT_SET_NO":999,"REV_AT_EPOCH":56901,"BSTAR":0.0018205507,"MEAN_MOTION_DOT":6.228e-5,"MEAN_MOTION_DDOT":0}]
